SAR-LUPE 2              
1 31797U 07030A   26186.27702647  .00055276  00000+0  88795-3 0  9999
2 31797  98.1057 292.9916 0003452 220.0269 140.0728 15.52848751 59745
SAPPHIRE                
1 39088U 13009C   26186.21800623  .00000142  00000+0  64582-4 0  9991
2 39088  98.4269   5.2463 0010952 189.2500 170.8485 14.35245788699161
PRAETORIAN SDA_602      
1 65565U 25203A   26185.87951074  .00000119  00000+0  96920-4 0  9992
2 65565  81.3034 354.3847 0006744 141.8633 218.3002 13.83887517 41146
PRAETORIAN SDA_603      
1 65566U 25203B   26185.90835014  .00002932  00000+0  26300-2 0  9990
2 65566  81.3042 354.2803 0010389 140.1155 220.0767 13.83949027 41152
PRAETORIAN SDA_604      
1 65567U 25203C   26185.86679194  .00000089  00000+0  70101-4 0  9992
2 65567  81.3058 354.7581 0006204 145.3836 214.7725 13.83049556 41121
PRAETORIAN SDA_605      
1 65568U 25203D   26183.87446639  .00000022  00000+0  92536-5 0  9992
2 65568  81.3021 356.2472 0008905 142.0754 218.1031 13.83435094 40865
PRAETORIAN SDA_606      
1 65569U 25203E   26185.88510959  .00000067  00000+0  50174-4 0  9993
2 65569  81.3059 354.6222 0006840 140.1963 219.9697 13.83199467 41138
PRAETORIAN SDA_607      
1 65570U 25203F   26185.95198572 -.00013389  00000+0 -12115-1 0  9999
2 65570  81.3008 354.1916 0009585 141.9632 218.2203 13.83845510 41165
PRAETORIAN SDA_608      
1 65571U 25203G   26185.93490693  .00000097  00000+0  76966-4 0  9994
2 65571  81.3012 354.3750 0006708 144.3738 215.7868 13.83818876 41149
PRAETORIAN SDA_609      
1 65572U 25203H   26185.93478949  .00000207  00000+0  17462-3 0  9993
2 65572  81.3052 354.3552 0007626 139.2292 220.9437 13.84211369 41158
PRAETORIAN SDA_610      
1 65573U 25203J   26185.77066072  .00000060  00000+0  43434-4 0  9992
2 65573  81.3012 354.4867 0007479 144.3429 215.8228 13.83769249 41122
PRAETORIAN SDA_611      
1 65574U 25203K   26185.92194582  .00000378  00000+0  33331-3 0  9994
2 65574  81.3020 354.5245 0006258 147.7322 212.4218 13.83311192 41139
PRAETORIAN SDA_612      
1 65575U 25203L   26185.88942840  .00000120  00000+0  95134-4 0  9993
2 65575  81.3032 354.0976 0010038 140.1624 220.0271 13.85040922 41161
PRAETORIAN SDA_613      
1 65576U 25203M   26185.71858713  .00000112  00000+0  92136-4 0  9991
2 65576  81.3004 354.7234 0006455 139.0109 221.1533 13.82767196 41101
PRAETORIAN SDA_614      
1 65577U 25203N   26185.73744223  .00000022  00000+0  85283-5 0  9990
2 65577  81.3018 354.3207 0007917 138.0342 222.1423 13.84778247 41149
PRAETORIAN SDA_615      
1 65578U 25203P   26185.93546394  .00000216  00000+0  18214-3 0  9995
2 65578  81.3027 354.1122 0009803 138.7995 221.3904 13.84438572 41162
PRAETORIAN SDA_616      
1 65579U 25203Q   26185.92168899  .00000199  00000+0  17024-3 0  9993
2 65579  81.3068 354.6820 0006169 145.8742 214.2812 13.83270111 41137
PRAETORIAN SDA_617      
1 65580U 25203R   26185.72779251  .00000066  00000+0  49500-4 0  9991
2 65580  81.3041 354.6907 0008165 138.5526 221.6251 13.83151423 41114
PRAETORIAN SDA_618      
1 65581U 25203S   26185.90123317  .00000138  00000+0  11335-3 0  9992
2 65581  81.3023 354.0723 0010550 142.2701 217.9197 13.84225370 41169
PRAETORIAN SDA_619      
1 65582U 25203T   26185.94552485  .00000240  00000+0  20556-3 0  9998
2 65582  81.3050 354.3509 0008992 138.5510 221.6330 13.83804738 41787
PRAETORIAN SDA_620      
1 65583U 25203U   26185.90411603  .00000242  00000+0  20977-3 0  9990
2 65583  81.3017 354.4137 0008409 136.4818 223.7003 13.83304078 41142
PRAETORIAN SDA_621      
1 65584U 25203V   26185.87504324  .00000103  00000+0  82321-4 0  9998
2 65584  81.3026 354.3507 0008225 133.4875 226.6967 13.83803358 41145
PRAETORIAN SDA_601      
1 65585U 25203W   26185.70909572  .00000436  00000+0  38741-3 0  9990
2 65585  81.3048 354.8205 0006161 149.4294 210.7222 13.83169795 41103
VICTUS HAZE PUMA        
1 69646U 26142A   26186.31006071  .00005676  00000+0  25896-3 0  9993
2 69646  97.4474  83.7278 0025605 302.9088  56.9684 15.20728196  2428
